{
  "type": "FeatureCollection",
  "features": [
    {
      "type": "Feature",
      "properties": {
        "norad_id": 54259,
        "name": "EUTELSAT 10B",
        "group": "eutelsat",
        "lat": -0.037788632198220866,
        "lon": -54.03356180090534,
        "alt_km": 35790.08070952253,
        "timestamp": "2025-12-05T14:45:14.985105+00:00",
        "meta_object_name": "EUTELSAT 10B",
        "meta_object_id": "2022-157A",
        "meta_epoch": "2025-12-04T13:46:26.835744",
        "meta_mean_motion": 1.00267156,
        "meta_eccentricity": 0.0001176,
        "meta_inclination": 0.0608,
        "meta_ra_of_asc_node": 104.3819,
        "meta_arg_of_pericenter": 77.0234,
        "meta_mean_anomaly": 108.856,
        "meta_ephemeris_type": 0,
        "meta_classification_type": "U",
        "meta_norad_cat_id": 54259,
        "meta_element_set_no": 999,
        "meta_rev_at_epoch": 1107,
        "meta_bstar": 0,
        "meta_mean_motion_dot": 8.2e-07,
        "meta_mean_motion_ddot": 0,
        "tle_line1": "1 54259U 22157A   25338.57392171  .00000082  00000+0  00000+0 0  9996",
        "tle_line2": "2 54259   0.0608 104.3819 0001176  77.0234 108.8560  1.00267156 11070"
      },
      "geometry": {
        "type": "Point",
        "coordinates": [
          -54.03356180090534,
          -0.037788632198220866
        ]
      }
    },
    {
      "type": "Feature",
      "properties": {
        "norad_id": 59346,
        "name": "EUTELSAT 36D",
        "group": "eutelsat",
        "lat": -0.00861532436958054,
        "lon": -28.156285101128457,
        "alt_km": 35784.320131439796,
        "timestamp": "2025-12-05T14:45:14.985116+00:00",
        "meta_object_name": "EUTELSAT 36D",
        "meta_object_id": "2024-059A",
        "meta_epoch": "2025-12-04T04:07:21.549216",
        "meta_mean_motion": 1.00269711,
        "meta_eccentricity": 5.71e-05,
        "meta_inclination": 0.006,
        "meta_ra_of_asc_node": 13.2097,
        "meta_arg_of_pericenter": 292.2677,
        "meta_mean_anomaly": 225.4931,
        "meta_ephemeris_type": 0,
        "meta_classification_type": "U",
        "meta_norad_cat_id": 59346,
        "meta_element_set_no": 999,
        "meta_rev_at_epoch": 619,
        "meta_bstar": 0,
        "meta_mean_motion_dot": 1.72e-06,
        "meta_mean_motion_ddot": 0,
        "tle_line1": "1 59346U 24059A   25338.17177719  .00000172  00000+0  00000+0 0  9996",
        "tle_line2": "2 59346   0.0060  13.2097 0000571 292.2677 225.4931  1.00269711  6194"
      },
      "geometry": {
        "type": "Point",
        "coordinates": [
          -28.156285101128457,
          -0.00861532436958054
        ]
      }
    }
  ]
}